{"type": "FeatureCollection", "features": [ {"type": "Feature", "properties": {"norad_id": 37340, "name": "COSMOS 2251 DEB", "group": "cosmos-2251-debris", "lat": -67.5849435808919, "lon": -135.49984444458366, "alt_km": 772.5243993184758, "timestamp": "2025-12-17T10:52:54.750110+00:00", "meta": {"OBJECT_NAME": "COSMOS 2251 DEB", "OBJECT_ID": "1993-036BLG", "EPOCH": "2025-12-14T11:22:35.426496", "MEAN_MOTION": 14.36925814, "ECCENTRICITY": 0.00178426, "INCLINATION": 74.0254, "RA_OF_ASC_NODE": 273.9638, "ARG_OF_PERICENTER": 8.4859, "MEAN_ANOMALY": 351.6592, "EPHEMERIS_TYPE": 0, "CLASSIFICATION_TYPE": "U", "NORAD_CAT_ID": 37340, "ELEMENT_SET_NO": 999, "REV_AT_EPOCH": 84092, "BSTAR": 0.00025986643, "MEAN_MOTION_DOT": 7.44e-06, "MEAN_MOTION_DDOT": 0}, "tle": {"line1": "1 37340U 93036BLG 25348.47402114  .00000744  00000+0  25987-3 0  9991", "line2": "2 37340  74.0254 273.9638 0017842   8.4859 351.6592 14.36925814840922"}}, "geometry": {"type": "Point", "coordinates": [-135.49984444458366, -67.5849435808919]}}, {"type": "Feature", "properties": {"norad_id": 37483, "name": "COSMOS 2251 DEB", "group": "cosmos-2251-debris", "lat": 27.231410580623102, "lon": -53.964942894069374, "alt_km": 811.0511429302614, "timestamp": "2025-12-17T10:52:54.750120+00:00", "meta": {"OBJECT_NAME": "COSMOS 2251 DEB", "OBJECT_ID": "1993-036BLL", "EPOCH": "2025-12-16T02:34:50.179872", "MEAN_MOTION": 14.43561514, "ECCENTRICITY": 0.00933025, "INCLINATION": 73.9731, "RA_OF_ASC_NODE": 137.0519, "ARG_OF_PERICENTER": 342.7236, "MEAN_ANOMALY": 17.075, "EPHEMERIS_TYPE": 0, "CLASSIFICATION_TYPE": "U", "NORAD_CAT_ID": 37483, "ELEMENT_SET_NO": 999, "REV_AT_EPOCH": 65328, "BSTAR": 0.00019582511, "MEAN_MOTION_DOT": 6.7e-06, "MEAN_MOTION_DDOT": 0}, "tle": {"line1": "1 37483U 93036BLL 25350.10752523  .00000670  00000+0  19583-3 0  9997", "line2": "2 37483  73.9731 137.0519 0093302 342.7236  17.0750 14.43561514653285"}}, "geometry": {"type": "Point", "coordinates": [-53.964942894069374, 27.231410580623102]}}, {"type": "Feature", "properties": {"norad_id": 37484, "name": "COSMOS 2251 DEB", "group": "cosmos-2251-debris", "lat": 10.073955891684198, "lon": -157.45154153604025, "alt_km": 774.3232955392559, "timestamp": "2025-12-17T10:52:54.750130+00:00", "meta": {"OBJECT_NAME": "COSMOS 2251 DEB", "OBJECT_ID": "1993-036BLM", "EPOCH": "2025-12-15T22:30:27.179712", "MEAN_MOTION": 14.41798427, "ECCENTRICITY": 0.00396359, "INCLINATION": 73.8232, "RA_OF_ASC_NODE": 202.4364, "ARG_OF_PERICENTER": 236.871, "MEAN_ANOMALY": 189.8739, "EPHEMERIS_TYPE": 0, "CLASSIFICATION_TYPE": "U", "NORAD_CAT_ID": 37484, "ELEMENT_SET_NO": 999, "REV_AT_EPOCH": 65425, "BSTAR": 0.00048864648, "MEAN_MOTION_DOT": 1.583e-05, "MEAN_MOTION_DDOT": 0}, "tle": {"line1": "1 37484U 93036BLM 25349.93781458  .00001583  00000+0  48865-3 0  9995", "line2": "2 37484  73.8232 202.4364 0039635 236.8710 189.8739 14.41798427654251"}}, "geometry": {"type": "Point", "coordinates": [-157.45154153604025, 10.073955891684198]}}, {"type": "Feature", "properties": {"norad_id": 37486, "name": "COSMOS 2251 DEB", "group": "cosmos-2251-debris", "lat": 31.067080706368195, "lon": -84.0820177277464, "alt_km": 1010.864959409233, "timestamp": "2025-12-17T10:52:54.750141+00:00", "meta": {"OBJECT_NAME": "COSMOS 2251 DEB", "OBJECT_ID": "1993-036BLP", "EPOCH": "2025-12-15T02:58:15.187296", "MEAN_MOTION": 14.1334654, "ECCENTRICITY": 0.02298009, "INCLINATION": 73.6912, "RA_OF_ASC_NODE": 110.2876, "ARG_OF_PERICENTER": 337.987, "MEAN_ANOMALY": 200.3522, "EPHEMERIS_TYPE": 0, "CLASSIFICATION_TYPE": "U", "NORAD_CAT_ID": 37486, "ELEMENT_SET_NO": 999, "REV_AT_EPOCH": 63403, "BSTAR": 0.0015140816, "MEAN_MOTION_DOT": 3.628e-05, "MEAN_MOTION_DDOT": 0}, "tle": {"line1": "1 37486U 93036BLP 25349.12378689  .00003628  00000+0  15141-2 0  9998", "line2": "2 37486  73.6912 110.2876 0229800 337.9870 200.3522 14.13346540634032"}}, "geometry": {"type": "Point", "coordinates": [-84.0820177277464, 31.067080706368195]}}, {"type": "Feature", "properties": {"norad_id": 37487, "name": "COSMOS 2251 DEB", "group": "cosmos-2251-debris", "lat": -47.93964673400795, "lon": 164.04936009080419, "alt_km": 625.5150348638081, "timestamp": "2025-12-17T10:52:54.750163+00:00", "meta": {"OBJECT_NAME": "COSMOS 2251 DEB", "OBJECT_ID": "1993-036BLQ", "EPOCH": "2025-12-12T06:17:24.389376", "MEAN_MOTION": 14.80982589, "ECCENTRICITY": 0.00255931, "INCLINATION": 73.9026, "RA_OF_ASC_NODE": 193.0379, "ARG_OF_PERICENTER": 31.2136, "MEAN_ANOMALY": 329.0553, "EPHEMERIS_TYPE": 0, "CLASSIFICATION_TYPE": "U", "NORAD_CAT_ID": 37487, "ELEMENT_SET_NO": 999, "REV_AT_EPOCH": 81238, "BSTAR": 0.0042593386, "MEAN_MOTION_DOT": 0.00033302, "MEAN_MOTION_DDOT": 0}, "tle": {"line1": "1 37487U 93036BLQ 25346.26208784  .00033302  00000+0  42593-2 0  9992", "line2": "2 37487  73.9026 193.0379 0025593  31.2136 329.0553 14.80982589812383"}}, "geometry": {"type": "Point", "coordinates": [164.04936009080419, -47.93964673400795]}}, {"type": "Feature", "properties": {"norad_id": 37491, "name": "COSMOS 2251 DEB", "group": "cosmos-2251-debris", "lat": 68.07765204958858, "lon": -47.97439381709705, "alt_km": 1206.5024103648975, "timestamp": "2025-12-17T10:52:54.750174+00:00", "meta": {"OBJECT_NAME": "COSMOS 2251 DEB", "OBJECT_ID": "1993-036BLU", "EPOCH": "2025-12-16T01:20:01.568544", "MEAN_MOTION": 13.75301239, "ECCENTRICITY": 0.03170701, "INCLINATION": 73.906, "RA_OF_ASC_NODE": 268.5319, "ARG_OF_PERICENTER": 261.0181, "MEAN_ANOMALY": 95.4932, "EPHEMERIS_TYPE": 0, "CLASSIFICATION_TYPE": "U", "NORAD_CAT_ID": 37491, "ELEMENT_SET_NO": 999, "REV_AT_EPOCH": 55792, "BSTAR": 0.00075694547, "MEAN_MOTION_DOT": 1.022e-05, "MEAN_MOTION_DDOT": 0}, "tle": {"line1": "1 37491U 93036BLU 25350.05557371  .00001022  00000+0  75695-3 0  9992", "line2": "2 37491  73.9060 268.5319 0317070 261.0181  95.4932 13.75301239557926"}}, "geometry": {"type": "Point", "coordinates": [-47.97439381709705, 68.07765204958858]}}, {"type": "Feature", "properties": {"norad_id": 37498, "name": "COSMOS 2251 DEB", "group": "cosmos-2251-debris", "lat": 28.066485395868714, "lon": -176.25387512592388, "alt_km": 715.9684063890054, "timestamp": "2025-12-17T10:52:54.750184+00:00", "meta": {"OBJECT_NAME": "COSMOS 2251 DEB", "OBJECT_ID": "1993-036BMB", "EPOCH": "2025-12-14T06:49:44.183424", "MEAN_MOTION": 14.54779293, "ECCENTRICITY": 0.00119872, "INCLINATION": 74.0355, "RA_OF_ASC_NODE": 180.9606, "ARG_OF_PERICENTER": 244.0007, "MEAN_ANOMALY": 115.9922, "EPHEMERIS_TYPE": 0, "CLASSIFICATION_TYPE": "U", "NORAD_CAT_ID": 37498, "ELEMENT_SET_NO": 999, "REV_AT_EPOCH": 65377, "BSTAR": 0.00061481383, "MEAN_MOTION_DOT": 2.61e-05, "MEAN_MOTION_DDOT": 0}, "tle": {"line1": "1 37498U 93036BMB 25348.28453916  .00002610  00000+0  61481-3 0  9993", "line2": "2 37498  74.0355 180.9606 0011987 244.0007 115.9922 14.54779293653778"}}, "geometry": {"type": "Point", "coordinates": [-176.25387512592388, 28.066485395868714]}}, {"type": "Feature", "properties": {"norad_id": 37499, "name": "COSMOS 2251 DEB", "group": "cosmos-2251-debris", "lat": -68.2436406795608, "lon": 179.38214094379092, "alt_km": 797.3931646881547, "timestamp": "2025-12-17T10:52:54.750194+00:00", "meta": {"OBJECT_NAME": "COSMOS 2251 DEB", "OBJECT_ID": "1993-036BMC", "EPOCH": "2025-12-16T15:17:00.283776", "MEAN_MOTION": 14.34346206, "ECCENTRICITY": 0.00270928, "INCLINATION": 74.0379, "RA_OF_ASC_NODE": 315.0551, "ARG_OF_PERICENTER": 29.8963, "MEAN_ANOMALY": 330.3729, "EPHEMERIS_TYPE": 0, "CLASSIFICATION_TYPE": "U", "NORAD_CAT_ID": 37499, "ELEMENT_SET_NO": 999, "REV_AT_EPOCH": 85205, "BSTAR": 0.0001595239, "MEAN_MOTION_DOT": 4.24e-06, "MEAN_MOTION_DDOT": 0}, "tle": {"line1": "1 37499U 93036BMC 25350.63680884  .00000424  00000+0  15952-3 0  9995", "line2": "2 37499  74.0379 315.0551 0027092  29.8963 330.3729 14.34346206852051"}}, "geometry": {"type": "Point", "coordinates": [179.38214094379092, -68.2436406795608]}}, {"type": "Feature", "properties": {"norad_id": 37528, "name": "COSMOS 2251 DEB", "group": "cosmos-2251-debris", "lat": -33.15716760060162, "lon": 102.50158664644378, "alt_km": 723.2566187859657, "timestamp": "2025-12-17T10:52:54.750204+00:00", "meta": {"OBJECT_NAME": "COSMOS 2251 DEB", "OBJECT_ID": "1993-036BNH", "EPOCH": "2025-12-15T01:06:28.524672", "MEAN_MOTION": 14.50529605, "ECCENTRICITY": 0.0021174, "INCLINATION": 74.0366, "RA_OF_ASC_NODE": 117.8019, "ARG_OF_PERICENTER": 265.761, "MEAN_ANOMALY": 94.113, "EPHEMERIS_TYPE": 0, "CLASSIFICATION_TYPE": "U", "NORAD_CAT_ID": 37528, "ELEMENT_SET_NO": 999, "REV_AT_EPOCH": 85964, "BSTAR": 0.00041051678, "MEAN_MOTION_DOT": 1.584e-05, "MEAN_MOTION_DDOT": 0}, "tle": {"line1": "1 37528U 93036BNH 25349.04616348  .00001584  00000+0  41052-3 0  9993", "line2": "2 37528  74.0366 117.8019 0021174 265.7610  94.1130 14.50529605859649"}}, "geometry": {"type": "Point", "coordinates": [102.50158664644378, -33.15716760060162]}}, {"type": "Feature", "properties": {"norad_id": 37530, "name": "COSMOS 2251 DEB", "group": "cosmos-2251-debris", "lat": -36.22276010749086, "lon": -47.09356026333935, "alt_km": 774.3431824960371, "timestamp": "2025-12-17T10:52:54.750214+00:00", "meta": {"OBJECT_NAME": "COSMOS 2251 DEB", "OBJECT_ID": "1993-036BNK", "EPOCH": "2025-12-16T15:31:15.279168", "MEAN_MOTION": 14.34508686, "ECCENTRICITY": 0.00259991, "INCLINATION": 74.0359, "RA_OF_ASC_NODE": 326.4868, "ARG_OF_PERICENTER": 27.4409, "MEAN_ANOMALY": 90.6459, "EPHEMERIS_TYPE": 0, "CLASSIFICATION_TYPE": "U", "NORAD_CAT_ID": 37530, "ELEMENT_SET_NO": 999, "REV_AT_EPOCH": 85288, "BSTAR": 0.00021920121, "MEAN_MOTION_DOT": 5.94e-06, "MEAN_MOTION_DDOT": 0}, "tle": {"line1": "1 37530U 93036BNK 25350.64670462  .00000594  00000+0  21920-3 0  9993", "line2": "2 37530  74.0359 326.4868 0025999  27.4409  90.6459 14.34508686852884"}}, "geometry": {"type": "Point", "coordinates": [-47.09356026333935, -36.22276010749086]}}]}